{"epoch":1784762836,"count":18316,"objects":[{"id":"56067","name":"ONEWEB-0578","type":"PAYLOAD","l1":"1 56067U 23043X   26203.15006786 -.00000031  00000-0 -10576-3 0  9990","l2":"2 56067  87.9234 237.0147 0001960  85.3424 274.7934 13.21825856162854"},{"id":"56068","name":"ONEWEB-0579","type":"PAYLOAD","l1":"1 56068U 23043Y   26203.36873140 -.00000003  00000-0 -38207-4 0  9991","l2":"2 56068  87.9239 236.9704 0002149 103.5876 256.5498 13.21824021162891"},{"id":"56069","name":"ONEWEB-0581","type":"PAYLOAD","l1":"1 56069U 23043Z   26203.48884046  .00000098  00000-0  22289-3 0  9996","l2":"2 56069  87.9068 221.7709 0001478  96.0160 264.1140 13.16595491163604"},{"id":"56070","name":"ONEWEB-0609","type":"PAYLOAD","l1":"1 56070U 23043AA  26203.47198831 -.00000135  00000-0 -39373-3 0  9993","l2":"2 56070  87.8976 252.1801 0002126  95.1366 265.0007 13.15547239161070"},{"id":"56071","name":"ONEWEB-0613","type":"PAYLOAD","l1":"1 56071U 23043AB  26203.54566746 -.00000157  00000-0 -45173-3 0  9995","l2":"2 56071  87.8977 252.1779 0002273 101.2560 258.8825 13.15548055161080"},{"id":"56072","name":"ONEWEB-0630","type":"PAYLOAD","l1":"1 56072U 23043AC  26203.54090057 -.00000089  00000-0 -26945-3 0  9993","l2":"2 56072  87.8985 252.1526 0002231 101.3068 258.8313 13.15549254161071"},{"id":"56073","name":"ONEWEB-0632","type":"PAYLOAD","l1":"1 56073U 23043AD  26203.53614557 -.00000184  00000-0 -52290-3 0  9998","l2":"2 56073  87.8997 252.1722 0001916 102.3644 257.7701 13.15553372161078"},{"id":"56074","name":"ONEWEB-0633","type":"PAYLOAD","l1":"1 56074U 23043AE  26203.37770782 -.00000036  00000-0 -12997-3 0  9990","l2":"2 56074  87.8992 252.1800 0002455 100.1680 259.9727 13.15548672161031"},{"id":"56075","name":"ONEWEB-0634","type":"PAYLOAD","l1":"1 56075U 23043AF  26203.13527922  .00000128  00000-0  30489-3 0  9997","l2":"2 56075  87.8977 252.2651 0002172  87.5783 272.5596 13.15548402160998"},{"id":"56076","name":"ONEWEB-0635","type":"PAYLOAD","l1":"1 56076U 23043AG  26203.58686803  .00000110  00000-0  25867-3 0  9996","l2":"2 56076  87.8979 252.1409 0001772  99.4977 260.6354 13.15547857161087"},{"id":"56077","name":"ONEWEB-0636","type":"PAYLOAD","l1":"1 56077U 23043AH  26203.57894143  .00000140  00000-0  33822-3 0  9997","l2":"2 56077  87.8983 252.1478 0001797  97.8411 262.2924 13.15548360161060"},{"id":"56078","name":"ONEWEB-0637","type":"PAYLOAD","l1":"1 56078U 23043AJ  26203.57260334  .00000023  00000-0  27043-4 0  9996","l2":"2 56078  87.8970 252.1633 0001866  89.4187 270.7158 13.15548385161086"},{"id":"56079","name":"ONEWEB-0647","type":"PAYLOAD","l1":"1 56079U 23043AK  26203.56784260  .00000084  00000-0  18801-3 0  9993","l2":"2 56079  87.8975 252.1770 0001985 101.3048 258.8305 13.15549233161079"},{"id":"56080","name":"ONEWEB-0651","type":"PAYLOAD","l1":"1 56080U 23043AL  26203.56310116  .00000058  00000-0  11882-3 0  9993","l2":"2 56080  87.8974 252.1709 0001820  94.7689 265.3649 13.15548086162278"},{"id":"56081","name":"ONEWEB-0718","type":"PAYLOAD","l1":"1 56081U 23043AM  26203.40621744 -.00000074  00000-0 -23116-3 0  9992","l2":"2 56081  87.8984 252.1833 0002422  88.0527 272.0881 13.15549788161063"},{"id":"56710","name":"ONEWEB-0561","type":"PAYLOAD","l1":"1 56710U 23068A   26203.19730705  .00000080  00000-0  16600-3 0  9997","l2":"2 56710  87.9177 267.4670 0001841 105.6855 254.4481 13.20771588154129"},{"id":"56711","name":"ONEWEB-0668","type":"PAYLOAD","l1":"1 56711U 23068B   26203.46351230 -.00000055  00000-0 -17656-3 0  9996","l2":"2 56711  87.9082 221.7653 0002159  77.9645 282.1728 13.16595653156429"},{"id":"56712","name":"ONEWEB-0676","type":"PAYLOAD","l1":"1 56712U 23068C   26203.47141899 -.00000082  00000-0 -24939-3 0  9998","l2":"2 56712  87.9080 221.7698 0001747  93.8923 266.2407 13.16592510156342"},{"id":"56713","name":"ONEWEB-0677","type":"PAYLOAD","l1":"1 56713U 23068D   26203.41280021  .00000010  00000-0 -61627-5 0  9991","l2":"2 56713  87.9180 267.4153 0001724  90.2096 269.9235 13.20771790154457"},{"id":"56714","name":"ONEWEB-0678","type":"PAYLOAD","l1":"1 56714U 23068E   26203.22242795 -.00000085  00000-0 -25969-3 0  9997","l2":"2 56714  87.8987 252.2150 0002131 103.9910 256.1458 13.15547782153899"},{"id":"56715","name":"ONEWEB-0679","type":"PAYLOAD","l1":"1 56715U 23068F   26203.50626739  .00000161  00000-0  38805-3 0  9999","l2":"2 56715  87.9076 221.7539 0001742  77.2770 282.8556 13.16594534156375"},{"id":"56716","name":"ONEWEB-0680","type":"PAYLOAD","l1":"1 56716U 23068G   26203.37041313  .00000022  00000-0  21149-4 0  9994","l2":"2 56716  87.9236 236.9707 0002044  78.3819 281.7544 13.21826175155741"},{"id":"56717","name":"ONEWEB-0681","type":"PAYLOAD","l1":"1 56717U 23068H   26203.50245332 -.00000167  00000-0 -43488-3 0  9998","l2":"2 56717  87.9232 236.9448 0001154 108.1036 252.0223 13.21825382155759"},{"id":"56718","name":"ONEWEB-0682","type":"PAYLOAD","l1":"1 56718U 23068J   26203.55042382 -.00000115  00000-0 -34040-3 0  9991","l2":"2 56718  87.8982 252.1494 0002042  82.5595 277.5767 13.15548455154103"},{"id":"56719","name":"ONEWEB-0683","type":"PAYLOAD","l1":"1 56719U 23068K   26203.19390136  .00000126  00000-0  29938-3 0  9995","l2":"2 56719  87.8987 252.2215 0002047  89.0828 271.0537 13.15547947154027"},{"id":"56720","name":"ONEWEB-0684","type":"PAYLOAD","l1":"1 56720U 23068L   26203.20181612  .00000193  00000-0  47964-3 0  9999","l2":"2 56720  87.8984 252.2088 0003183 112.6551 247.4917 13.15548912153854"},{"id":"56721","name":"ONEWEB-0686","type":"PAYLOAD","l1":"1 56721U 23068M   26203.08670753 -.00000055  00000-0 -17811-3 0  9992","l2":"2 56721  87.9068 221.8576 0002367  88.9830 271.1572 13.16594100156306"},{"id":"56722","name":"ONEWEB-0694","type":"PAYLOAD","l1":"1 56722U 23068N   26203.47302814 -.00000041  00000-0 -13989-3 0  9993","l2":"2 56722  87.9089 221.7524 0002121  79.3552 280.7818 13.16593559156413"},{"id":"56723","name":"ONEWEB-0696","type":"PAYLOAD","l1":"1 56723U 23068P   26203.38719842  .00000000  00000-0 -34685-4 0  9998","l2":"2 56723  87.8978 252.2081 0002198 109.1608 250.9760 13.15550194153997"},{"id":"56724","name":"ONEWEB-0703","type":"PAYLOAD","l1":"1 56724U 23068Q   26203.39671946 -.00000091  00000-0 -27467-3 0  9992","l2":"2 56724  87.8976 252.1870 0002025 122.2005 237.9322 13.15548113153882"}]}