OBJECT_NAME,OBJECT_ID,EPOCH,MEAN_MOTION,ECCENTRICITY,INCLINATION,RA_OF_ASC_NODE,ARG_OF_PERICENTER,MEAN_ANOMALY,EPHEMERIS_TYPE,CLASSIFICATION_TYPE,NORAD_CAT_ID,ELEMENT_SET_NO,REV_AT_EPOCH,BSTAR,MEAN_MOTION_DOT,MEAN_MOTION_DDOT
ONEWEB-0578,2023-043X,2026-07-22T03:36:05.863104,13.21825856,.00019601,87.9234,237.0147,85.3424,274.7934,0,U,56067,999,16285,-.10575836E-3,-.31E-6,0
ONEWEB-0579,2023-043Y,2026-07-22T08:50:58.392960,13.21824021,.00021487,87.9239,236.9704,103.5876,256.5498,0,U,56068,999,16289,-.38207396E-4,-.3E-7,0
ONEWEB-0581,2023-043Z,2026-07-22T11:43:55.815744,13.16595491,.00014776,87.9068,221.7709,96.0160,264.1140,0,U,56069,999,16360,.22288731E-3,.98E-6,0
ONEWEB-0609,2023-043AA,2026-07-22T11:19:39.789984,13.15547239,.00021259,87.8976,252.1801,95.1366,265.0007,0,U,56070,999,16107,-.39373223E-3,-.135E-5,0
ONEWEB-0613,2023-043AB,2026-07-22T13:05:45.668544,13.15548055,.00022727,87.8977,252.1779,101.2560,258.8825,0,U,56071,999,16108,-.45172749E-3,-.157E-5,0
ONEWEB-0630,2023-043AC,2026-07-22T12:58:53.809248,13.15549254,.00022313,87.8985,252.1526,101.3068,258.8313,0,U,56072,999,16107,-.2694527E-3,-.89E-6,0
ONEWEB-0632,2023-043AD,2026-07-22T12:52:02.977248,13.15553372,.00019156,87.8997,252.1722,102.3644,257.7701,0,U,56073,999,16107,-.52290405E-3,-.184E-5,0
ONEWEB-0633,2023-043AE,2026-07-22T09:03:53.955648,13.15548672,.00024545,87.8992,252.1800,100.1680,259.9727,0,U,56074,999,16103,-.1299686E-3,-.36E-6,0
ONEWEB-0634,2023-043AF,2026-07-22T03:14:48.124608,13.15548402,.00021718,87.8977,252.2651,87.5783,272.5596,0,U,56075,999,16099,.30489221E-3,.128E-5,0
ONEWEB-0635,2023-043AG,2026-07-22T14:05:05.397792,13.15547857,.0001772,87.8979,252.1409,99.4977,260.6354,0,U,56076,999,16108,.25866538E-3,.11E-5,0
ONEWEB-0636,2023-043AH,2026-07-22T13:53:40.539552,13.15548360,.00017972,87.8983,252.1478,97.8411,262.2924,0,U,56077,999,16106,.33822327E-3,.14E-5,0
ONEWEB-0637,2023-043AJ,2026-07-22T13:44:32.928576,13.15548385,.00018662,87.8970,252.1633,89.4187,270.7158,0,U,56078,999,16108,.27043327E-4,.23E-6,0
ONEWEB-0647,2023-043AK,2026-07-22T13:37:41.600640,13.15549233,.00019847,87.8975,252.1770,101.3048,258.8305,0,U,56079,999,16107,.18801266E-3,.84E-6,0
ONEWEB-0651,2023-043AL,2026-07-22T13:30:51.940224,13.15548086,.00018198,87.8974,252.1709,94.7689,265.3649,0,U,56080,999,16227,.11881751E-3,.58E-6,0
ONEWEB-0718,2023-043AM,2026-07-22T09:44:57.186816,13.15549788,.00024217,87.8984,252.1833,88.0527,272.0881,0,U,56081,999,16106,-.23116297E-3,-.74E-6,0
ONEWEB-0561,2023-068A,2026-07-22T04:44:07.329120,13.20771588,.00018407,87.9177,267.4670,105.6855,254.4481,0,U,56710,999,15412,.16599674E-3,.8E-6,0
ONEWEB-0668,2023-068B,2026-07-22T11:07:27.462720,13.16595653,.00021591,87.9082,221.7653,77.9645,282.1728,0,U,56711,999,15642,-.17655638E-3,-.55E-6,0
ONEWEB-0676,2023-068C,2026-07-22T11:18:50.600736,13.16592510,.0001747,87.9080,221.7698,93.8923,266.2407,0,U,56712,999,15634,-.24939477E-3,-.82E-6,0
ONEWEB-0677,2023-068D,2026-07-22T09:54:25.938144,13.20771790,.00017239,87.9180,267.4153,90.2096,269.9235,0,U,56713,999,15445,-.616269E-5,.1E-6,0
ONEWEB-0678,2023-068E,2026-07-22T05:20:17.774880,13.15547782,.00021305,87.8987,252.2150,103.9910,256.1458,0,U,56714,999,15389,-.25968846E-3,-.85E-6,0
ONEWEB-0679,2023-068F,2026-07-22T12:09:01.502496,13.16594534,.00017417,87.9076,221.7539,77.2770,282.8556,0,U,56715,999,15637,.38804941E-3,.161E-5,0
ONEWEB-0680,2023-068G,2026-07-22T08:53:23.694432,13.21826175,.0002044,87.9236,236.9707,78.3819,281.7544,0,U,56716,999,15574,.211485E-4,.22E-6,0
ONEWEB-0681,2023-068H,2026-07-22T12:03:31.966848,13.21825382,.00011544,87.9232,236.9448,108.1036,252.0223,0,U,56717,999,15575,-.43487702E-3,-.167E-5,0
ONEWEB-0682,2023-068J,2026-07-22T13:12:36.618048,13.15548455,.00020423,87.8982,252.1494,82.5595,277.5767,0,U,56718,999,15410,-.34040429E-3,-.115E-5,0
ONEWEB-0683,2023-068K,2026-07-22T04:39:13.077504,13.15547947,.00020468,87.8987,252.2215,89.0828,271.0537,0,U,56719,999,15402,.29937873E-3,.126E-5,0
ONEWEB-0684,2023-068L,2026-07-22T04:50:36.912768,13.15548912,.00031832,87.8984,252.2088,112.6551,247.4917,0,U,56720,999,15385,.47964399E-3,.193E-5,0
ONEWEB-0686,2023-068M,2026-07-22T02:04:51.530592,13.16594100,.00023673,87.9068,221.8576,88.9830,271.1572,0,U,56721,999,15630,-.17811483E-3,-.55E-6,0
ONEWEB-0694,2023-068N,2026-07-22T11:21:09.631296,13.16593559,.00021211,87.9089,221.7524,79.3552,280.7818,0,U,56722,999,15641,-.13989021E-3,-.41E-6,0
ONEWEB-0696,2023-068P,2026-07-22T09:17:33.943488,13.15550194,.00021976,87.8978,252.2081,109.1608,250.9760,0,U,56723,999,15399,-.34684754E-4,0,0
ONEWEB-0703,2023-068Q,2026-07-22T09:31:16.561344,13.15548113,.00020251,87.8976,252.1870,122.2005,237.9322,0,U,56724,999,15388,-.27466538E-3,-.91E-6,0
